STARLINK-30069          
1 56834U 23079M   26067.48212902 -.00002416  00000+0 -80472-4 0  9995
2 56834  42.9986 110.4464 0000469 272.6695  87.4103 15.26726881152740
STARLINK-31778          
1 59602U 24080B   26068.26178231 -.00000165  00000+0  35409-5 0  9996
2 59602  43.0012  37.1740 0001035 252.2473 107.8266 15.27576235104503
