[{"OBJECT_NAME":"STARLINK-30069","OBJECT_ID":"2023-079M","EPOCH":"2026-03-08T11:34:15.947328","MEAN_MOTION":15.26726881,"ECCENTRICITY":4.69e-5,"INCLINATION":42.9986,"RA_OF_ASC_NODE":110.4464,"ARG_OF_PERICENTER":272.6695,"MEAN_ANOMALY":87.4103,"EPHEMERIS_TYPE":0,"CLASSIFICATION_TYPE":"U","NORAD_CAT_ID":56834,"ELEMENT_SET_NO":999,"REV_AT_EPOCH":15274,"BSTAR":-8.0472e-5,"MEAN_MOTION_DOT":-2.416e-5,"MEAN_MOTION_DDOT":0},{"OBJECT_NAME":"STARLINK-31778","OBJECT_ID":"2024-080B","EPOCH":"2026-03-09T06:16:57.991584","MEAN_MOTION":15.27576235,"ECCENTRICITY":0.00010359,"INCLINATION":43.0012,"RA_OF_ASC_NODE":37.174,"ARG_OF_PERICENTER":252.2473,"MEAN_ANOMALY":107.8266,"EPHEMERIS_TYPE":0,"CLASSIFICATION_TYPE":"U","NORAD_CAT_ID":59602,"ELEMENT_SET_NO":999,"REV_AT_EPOCH":10450,"BSTAR":3.540937e-6,"MEAN_MOTION_DOT":-1.65e-6,"MEAN_MOTION_DDOT":0}]
